<?xml version="1.0" encoding="utf-8" ?>
<kml xmlns="http://www.opengis.net/kml/2.2">
<Document id="root_doc">
<Schema name="shmeia_ekdosis_prosopoiimenon" id="shmeia_ekdosis_prosopoiimenon">
	<SimpleField name="FID" type="int"></SimpleField>
	<SimpleField name="orario" type="string"></SimpleField>
	<SimpleField name="info" type="string"></SimpleField>
	<SimpleField name="shmeio" type="string"></SimpleField>
	<SimpleField name="layer" type="string"></SimpleField>
</Schema>
<Folder><name>shmeia_ekdosis_prosopoiimenon</name>
  <Placemark>
	<name>ΟΘΩΝΟΣ (ΣΥΝΤΑΓΜΑ)</name>
	<ExtendedData><SchemaData schemaUrl="#shmeia_ekdosis_prosopoiimenon">
		<SimpleData name="FID">1</SimpleData>
		<SimpleData name="orario">http://www.osy.gr/ethelsite/pages/ticketBoxes.php</SimpleData>
		<SimpleData name="info">Η έκδοση προσωποποιημένης κάρτας γίνεται και μέσω διαδικτύου στο www.oasa.gr</SimpleData>
		<SimpleData name="shmeio">ΕΚΔΟΤΗΡΙΟ ΛΕΩΦΟΡΕΙΩΝ</SimpleData>
		<SimpleData name="layer">ekdotiria_leoforeion</SimpleData>
	</SchemaData></ExtendedData>
      <Point><coordinates>23.7350771295448,37.9749040275856</coordinates></Point>
  </Placemark>
  <Placemark>
	<name>ΑΕΡΟΔΡΟΜΙΟ &quot;ΕΛ. ΒΕΝΙΖΕΛΟΣ&quot; - ΧΩΡΟΣ ΑΦΙΞΕΩΝ</name>
	<ExtendedData><SchemaData schemaUrl="#shmeia_ekdosis_prosopoiimenon">
		<SimpleData name="FID">2</SimpleData>
		<SimpleData name="orario">http://www.osy.gr/ethelsite/pages/ticketBoxes.php</SimpleData>
		<SimpleData name="info">Η έκδοση προσωποποιημένης κάρτας γίνεται και μέσω διαδικτύου στο www.oasa.gr</SimpleData>
		<SimpleData name="shmeio">ΕΚΔΟΤΗΡΙΟ ΛΕΩΦΟΡΕΙΩΝ</SimpleData>
		<SimpleData name="layer">ekdotiria_leoforeion</SimpleData>
	</SchemaData></ExtendedData>
      <Point><coordinates>23.9471909276922,37.9369876398373</coordinates></Point>
  </Placemark>
  <Placemark>
	<name>ΜΕΤΣΟΒΟΥ 15 ΑΘΗΝΑ</name>
	<ExtendedData><SchemaData schemaUrl="#shmeia_ekdosis_prosopoiimenon">
		<SimpleData name="FID">3</SimpleData>
		<SimpleData name="orario">8:00 - 14:15  Δευτέρα-Παρασκευή εκτός αργιών</SimpleData>
		<SimpleData name="info"></SimpleData>
		<SimpleData name="shmeio">ΕΔΡΑ ΟΑΣΑ</SimpleData>
		<SimpleData name="layer">oasa</SimpleData>
	</SchemaData></ExtendedData>
      <Point><coordinates>23.7329526138979,37.9905681891945</coordinates></Point>
  </Placemark>
  <Placemark>
	<name>ΑΓΙΑΣ ΦΩΤΕΙΝΗΣ</name>
	<ExtendedData><SchemaData schemaUrl="#shmeia_ekdosis_prosopoiimenon">
		<SimpleData name="FID">4</SimpleData>
		<SimpleData name="orario">http://www.stasy.gr/index.php?id=77</SimpleData>
		<SimpleData name="info">Η έκδοση προσωποποιημένης κάρτας γίνεται και μέσω διαδικτύου στο www.oasa.gr</SimpleData>
		<SimpleData name="shmeio">ΣΤΑΣΗ ΤΡΑΜ</SimpleData>
		<SimpleData name="layer">staseis_tram</SimpleData>
	</SchemaData></ExtendedData>
      <Point><coordinates>23.7150015795753,37.9464956679108</coordinates></Point>
  </Placemark>
  <Placemark>
	<name>ΜΟΥΣΩΝ</name>
	<ExtendedData><SchemaData schemaUrl="#shmeia_ekdosis_prosopoiimenon">
		<SimpleData name="FID">5</SimpleData>
		<SimpleData name="orario">http://www.stasy.gr/index.php?id=77</SimpleData>
		<SimpleData name="info">Η έκδοση προσωποποιημένης κάρτας γίνεται και μέσω διαδικτύου στο www.oasa.gr</SimpleData>
		<SimpleData name="shmeio">ΣΤΑΣΗ ΤΡΑΜ</SimpleData>
		<SimpleData name="layer">staseis_tram</SimpleData>
	</SchemaData></ExtendedData>
      <Point><coordinates>23.6998038815986,37.9219972989842</coordinates></Point>
  </Placemark>
  <Placemark>
	<name>ΑΓ. ΜΑΡΙΝΑ (Γρ. 3)</name>
	<ExtendedData><SchemaData schemaUrl="#shmeia_ekdosis_prosopoiimenon">
		<SimpleData name="FID">6</SimpleData>
		<SimpleData name="orario">http://www.stasy.gr/index.php?id=77</SimpleData>
		<SimpleData name="info">Η έκδοση προσωποποιημένης κάρτας γίνεται και μέσω διαδικτύου στο www.oasa.gr</SimpleData>
		<SimpleData name="shmeio">ΣΤΑΘΜΟΣ ΜΕΤΡΟ</SimpleData>
		<SimpleData name="layer">stathmoi_metro</SimpleData>
	</SchemaData></ExtendedData>
      <Point><coordinates>23.6673836829947,37.9972532748952</coordinates></Point>
  </Placemark>
  <Placemark>
	<name>ΑΕΡΟΔΡΟΜΙΟ (Γρ. 3)</name>
	<ExtendedData><SchemaData schemaUrl="#shmeia_ekdosis_prosopoiimenon">
		<SimpleData name="FID">7</SimpleData>
		<SimpleData name="orario">http://www.stasy.gr/index.php?id=77</SimpleData>
		<SimpleData name="info">Η έκδοση προσωποποιημένης κάρτας γίνεται και μέσω διαδικτύου στο www.oasa.gr</SimpleData>
		<SimpleData name="shmeio">ΣΤΑΘΜΟΣ ΜΕΤΡΟ</SimpleData>
		<SimpleData name="layer">stathmoi_metro</SimpleData>
	</SchemaData></ExtendedData>
      <Point><coordinates>23.9447106791928,37.9368055577038</coordinates></Point>
  </Placemark>
  <Placemark>
	<name>ΑΜΠΕΛΟΚΗΠΟΙ (Γρ. 3)</name>
	<ExtendedData><SchemaData schemaUrl="#shmeia_ekdosis_prosopoiimenon">
		<SimpleData name="FID">8</SimpleData>
		<SimpleData name="orario">http://www.stasy.gr/index.php?id=77</SimpleData>
		<SimpleData name="info">Η έκδοση προσωποποιημένης κάρτας γίνεται και μέσω διαδικτύου στο www.oasa.gr</SimpleData>
		<SimpleData name="shmeio">ΣΤΑΘΜΟΣ ΜΕΤΡΟ</SimpleData>
		<SimpleData name="layer">stathmoi_metro</SimpleData>
	</SchemaData></ExtendedData>
      <Point><coordinates>23.7572403642346,37.9872809962769</coordinates></Point>
  </Placemark>
  <Placemark>
	<name>ΑΝΘΟΥΠΟΛΗ (Γρ. 2)</name>
	<ExtendedData><SchemaData schemaUrl="#shmeia_ekdosis_prosopoiimenon">
		<SimpleData name="FID">9</SimpleData>
		<SimpleData name="orario">http://www.stasy.gr/index.php?id=77</SimpleData>
		<SimpleData name="info">Η έκδοση προσωποποιημένης κάρτας γίνεται και μέσω διαδικτύου στο www.oasa.gr</SimpleData>
		<SimpleData name="shmeio">ΣΤΑΘΜΟΣ ΜΕΤΡΟ</SimpleData>
		<SimpleData name="layer">stathmoi_metro</SimpleData>
	</SchemaData></ExtendedData>
      <Point><coordinates>23.6910120699129,38.0170975153628</coordinates></Point>
  </Placemark>
  <Placemark>
	<name>ΑΤΤΙΚΗ (Γρ. 1,2)</name>
	<ExtendedData><SchemaData schemaUrl="#shmeia_ekdosis_prosopoiimenon">
		<SimpleData name="FID">10</SimpleData>
		<SimpleData name="orario">http://www.stasy.gr/index.php?id=77</SimpleData>
		<SimpleData name="info">Η έκδοση προσωποποιημένης κάρτας γίνεται και μέσω διαδικτύου στο www.oasa.gr</SimpleData>
		<SimpleData name="shmeio">ΣΤΑΘΜΟΣ ΜΕΤΡΟ</SimpleData>
		<SimpleData name="layer">stathmoi_metro</SimpleData>
	</SchemaData></ExtendedData>
      <Point><coordinates>23.7224333419208,37.998644302135</coordinates></Point>
  </Placemark>
  <Placemark>
	<name>ΔΑΦΝΗ (Γρ. 2)</name>
	<ExtendedData><SchemaData schemaUrl="#shmeia_ekdosis_prosopoiimenon">
		<SimpleData name="FID">11</SimpleData>
		<SimpleData name="orario">http://www.stasy.gr/index.php?id=77</SimpleData>
		<SimpleData name="info">Η έκδοση προσωποποιημένης κάρτας γίνεται και μέσω διαδικτύου στο www.oasa.gr</SimpleData>
		<SimpleData name="shmeio">ΣΤΑΘΜΟΣ ΜΕΤΡΟ</SimpleData>
		<SimpleData name="layer">stathmoi_metro</SimpleData>
	</SchemaData></ExtendedData>
      <Point><coordinates>23.7378053130627,37.9494992151232</coordinates></Point>
  </Placemark>
  <Placemark>
	<name>ΔΟΥΚ. ΠΛΑΚΕΝΤΙΑΣ (Γρ. 3)</name>
	<ExtendedData><SchemaData schemaUrl="#shmeia_ekdosis_prosopoiimenon">
		<SimpleData name="FID">12</SimpleData>
		<SimpleData name="orario">http://www.stasy.gr/index.php?id=77</SimpleData>
		<SimpleData name="info">Η έκδοση προσωποποιημένης κάρτας γίνεται και μέσω διαδικτύου στο www.oasa.gr</SimpleData>
		<SimpleData name="shmeio">ΣΤΑΘΜΟΣ ΜΕΤΡΟ</SimpleData>
		<SimpleData name="layer">stathmoi_metro</SimpleData>
	</SchemaData></ExtendedData>
      <Point><coordinates>23.833604349907,38.0239004834563</coordinates></Point>
  </Placemark>
  <Placemark>
	<name>ΕΛΛΗΝΙΚΟ (Γρ. 3)</name>
	<ExtendedData><SchemaData schemaUrl="#shmeia_ekdosis_prosopoiimenon">
		<SimpleData name="FID">13</SimpleData>
		<SimpleData name="orario">http://www.stasy.gr/index.php?id=77</SimpleData>
		<SimpleData name="info">Η έκδοση προσωποποιημένης κάρτας γίνεται και μέσω διαδικτύου στο www.oasa.gr</SimpleData>
		<SimpleData name="shmeio">ΣΤΑΘΜΟΣ ΜΕΤΡΟ</SimpleData>
		<SimpleData name="layer">stathmoi_metro</SimpleData>
	</SchemaData></ExtendedData>
      <Point><coordinates>23.7474693888892,37.8926199562792</coordinates></Point>
  </Placemark>
  <Placemark>
	<name>ΕΥΑΓΓΕΛΙΣΜΟΣ (Γρ. 3)</name>
	<ExtendedData><SchemaData schemaUrl="#shmeia_ekdosis_prosopoiimenon">
		<SimpleData name="FID">14</SimpleData>
		<SimpleData name="orario">http://www.stasy.gr/index.php?id=77</SimpleData>
		<SimpleData name="info">Η έκδοση προσωποποιημένης κάρτας γίνεται και μέσω διαδικτύου στο www.oasa.gr</SimpleData>
		<SimpleData name="shmeio">ΣΤΑΘΜΟΣ ΜΕΤΡΟ</SimpleData>
		<SimpleData name="layer">stathmoi_metro</SimpleData>
	</SchemaData></ExtendedData>
      <Point><coordinates>23.7471909111511,37.97620059169</coordinates></Point>
  </Placemark>
  <Placemark>
	<name>ΚΑΤΩ ΠΑΤΗΣΙΑ (Γρ. 1)</name>
	<ExtendedData><SchemaData schemaUrl="#shmeia_ekdosis_prosopoiimenon">
		<SimpleData name="FID">15</SimpleData>
		<SimpleData name="orario">http://www.stasy.gr/index.php?id=77</SimpleData>
		<SimpleData name="info">Η έκδοση προσωποποιημένης κάρτας γίνεται και μέσω διαδικτύου στο www.oasa.gr</SimpleData>
		<SimpleData name="shmeio">ΣΤΑΘΜΟΣ ΜΕΤΡΟ</SimpleData>
		<SimpleData name="layer">stathmoi_metro</SimpleData>
	</SchemaData></ExtendedData>
      <Point><coordinates>23.7288293467437,38.0120980317179</coordinates></Point>
  </Placemark>
  <Placemark>
	<name>ΚΗΦΙΣΙΑ (Γρ. 1)</name>
	<ExtendedData><SchemaData schemaUrl="#shmeia_ekdosis_prosopoiimenon">
		<SimpleData name="FID">16</SimpleData>
		<SimpleData name="orario">http://www.stasy.gr/index.php?id=77</SimpleData>
		<SimpleData name="info">Η έκδοση προσωποποιημένης κάρτας γίνεται και μέσω διαδικτύου στο www.oasa.gr</SimpleData>
		<SimpleData name="shmeio">ΣΤΑΘΜΟΣ ΜΕΤΡΟ</SimpleData>
		<SimpleData name="layer">stathmoi_metro</SimpleData>
	</SchemaData></ExtendedData>
      <Point><coordinates>23.808208976825,38.0736024880626</coordinates></Point>
  </Placemark>
  <Placemark>
	<name>ΜΟΝΑΣΤΗΡΑΚΙ (Γρ. 1,3)</name>
	<ExtendedData><SchemaData schemaUrl="#shmeia_ekdosis_prosopoiimenon">
		<SimpleData name="FID">17</SimpleData>
		<SimpleData name="orario">http://www.stasy.gr/index.php?id=77</SimpleData>
		<SimpleData name="info">Η έκδοση προσωποποιημένης κάρτας γίνεται και μέσω διαδικτύου στο www.oasa.gr</SimpleData>
		<SimpleData name="shmeio">ΣΤΑΘΜΟΣ ΜΕΤΡΟ</SimpleData>
		<SimpleData name="layer">stathmoi_metro</SimpleData>
	</SchemaData></ExtendedData>
      <Point><coordinates>23.7258667029367,37.9766750250434</coordinates></Point>
  </Placemark>
  <Placemark>
	<name>ΝΕΟΣ ΚΟΣΜΟΣ (Γρ. 2)</name>
	<ExtendedData><SchemaData schemaUrl="#shmeia_ekdosis_prosopoiimenon">
		<SimpleData name="FID">18</SimpleData>
		<SimpleData name="orario">http://www.stasy.gr/index.php?id=77</SimpleData>
		<SimpleData name="info">Η έκδοση προσωποποιημένης κάρτας γίνεται και μέσω διαδικτύου στο www.oasa.gr</SimpleData>
		<SimpleData name="shmeio">ΣΤΑΘΜΟΣ ΜΕΤΡΟ</SimpleData>
		<SimpleData name="layer">stathmoi_metro</SimpleData>
	</SchemaData></ExtendedData>
      <Point><coordinates>23.7286092594991,37.9577059233786</coordinates></Point>
  </Placemark>
  <Placemark>
	<name>ΟΜΟΝΟΙΑ (Γρ. 1,2)</name>
	<ExtendedData><SchemaData schemaUrl="#shmeia_ekdosis_prosopoiimenon">
		<SimpleData name="FID">19</SimpleData>
		<SimpleData name="orario">http://www.stasy.gr/index.php?id=77</SimpleData>
		<SimpleData name="info">Η έκδοση προσωποποιημένης κάρτας γίνεται και μέσω διαδικτύου στο www.oasa.gr</SimpleData>
		<SimpleData name="shmeio">ΣΤΑΘΜΟΣ ΜΕΤΡΟ</SimpleData>
		<SimpleData name="layer">stathmoi_metro</SimpleData>
	</SchemaData></ExtendedData>
      <Point><coordinates>23.7281232709304,37.9841345552185</coordinates></Point>
  </Placemark>
  <Placemark>
	<name>ΠΑΝΕΠΙΣΤΗΜΙΟ (Γρ. 2)</name>
	<ExtendedData><SchemaData schemaUrl="#shmeia_ekdosis_prosopoiimenon">
		<SimpleData name="FID">20</SimpleData>
		<SimpleData name="orario">http://www.stasy.gr/index.php?id=77</SimpleData>
		<SimpleData name="info">Η έκδοση προσωποποιημένης κάρτας γίνεται και μέσω διαδικτύου στο www.oasa.gr</SimpleData>
		<SimpleData name="shmeio">ΣΤΑΘΜΟΣ ΜΕΤΡΟ</SimpleData>
		<SimpleData name="layer">stathmoi_metro</SimpleData>
	</SchemaData></ExtendedData>
      <Point><coordinates>23.7328088834524,37.98051215762</coordinates></Point>
  </Placemark>
  <Placemark>
	<name>ΠΕΙΡΑΙΑ (Γρ. 1)</name>
	<ExtendedData><SchemaData schemaUrl="#shmeia_ekdosis_prosopoiimenon">
		<SimpleData name="FID">21</SimpleData>
		<SimpleData name="orario">http://www.stasy.gr/index.php?id=77</SimpleData>
		<SimpleData name="info">Η έκδοση προσωποποιημένης κάρτας γίνεται και μέσω διαδικτύου στο www.oasa.gr</SimpleData>
		<SimpleData name="shmeio">ΣΤΑΘΜΟΣ ΜΕΤΡΟ</SimpleData>
		<SimpleData name="layer">stathmoi_metro</SimpleData>
	</SchemaData></ExtendedData>
      <Point><coordinates>23.6429863381933,37.9479726634287</coordinates></Point>
  </Placemark>
  <Placemark>
	<name>ΣΥΓΓΡΟΥ-ΦΙΞ (Γρ. 2)</name>
	<ExtendedData><SchemaData schemaUrl="#shmeia_ekdosis_prosopoiimenon">
		<SimpleData name="FID">22</SimpleData>
		<SimpleData name="orario">http://www.stasy.gr/index.php?id=77</SimpleData>
		<SimpleData name="info">Η έκδοση προσωποποιημένης κάρτας γίνεται και μέσω διαδικτύου στο www.oasa.gr</SimpleData>
		<SimpleData name="shmeio">ΣΤΑΘΜΟΣ ΜΕΤΡΟ</SimpleData>
		<SimpleData name="layer">stathmoi_metro</SimpleData>
	</SchemaData></ExtendedData>
      <Point><coordinates>23.726676983323,37.9645228997984</coordinates></Point>
  </Placemark>
  <Placemark>
	<name>ΣΥΝΤΑΓΜΑ (Γρ. 2,3)</name>
	<ExtendedData><SchemaData schemaUrl="#shmeia_ekdosis_prosopoiimenon">
		<SimpleData name="FID">23</SimpleData>
		<SimpleData name="orario">http://www.stasy.gr/index.php?id=77</SimpleData>
		<SimpleData name="info">Η έκδοση προσωποποιημένης κάρτας γίνεται και μέσω διαδικτύου στο www.oasa.gr</SimpleData>
		<SimpleData name="shmeio">ΣΤΑΘΜΟΣ ΜΕΤΡΟ</SimpleData>
		<SimpleData name="layer">stathmoi_metro</SimpleData>
	</SchemaData></ExtendedData>
      <Point><coordinates>23.7356888822533,37.9750909721573</coordinates></Point>
  </Placemark>
</Folder>
</Document></kml>
